NORAD_CAT_ID,OBJECT_NAME,OBJECT_TYPE,EPOCH,MEAN_MOTION,ECCENTRICITY,INCLINATION,RA_OF_ASC_NODE,ARG_OF_PERICENTER,MEAN_ANOMALY,BSTAR,MEAN_MOTION_DOT,MEAN_MOTION_DDOT,TLE_LINE0,TLE_LINE1,TLE_LINE2,SEMIMAJOR_AXIS,PERIOD,APOGEE,PERIGEE,DECAYED
50200.0,STARLINK-3235,PAYLOAD,2023-10-22 21:09:15,15.08834559,0.0001591,53.2149,179.3641,102.8453,257.2717,4.5783e-05,4.41e-06,0.0,0 STARLINK-3235,1 50200U 21125AW  23295.88142917  .00000441  00000-0  45783-4 0  9999,2 50200  53.2149 179.3641 0001591 102.8453 257.2717 15.08834559105097,6917.897,95.438,540.863,538.661,0.0
50200.0,STARLINK-3235,PAYLOAD,2023-10-22 22:44:38,15.08826334,0.0001726,53.215,179.0664,106.9409,253.1772,0.0011427,0.00017938,0.0,0 STARLINK-3235,1 50200U 21125AW  23295.94767216  .00017938  00000-0  11427-2 0  9996,2 50200  53.2150 179.0664 0001726 106.9409 253.1772 15.08826334105590,6917.922,95.438,540.981,538.593,0.0
50200.0,STARLINK-3235,PAYLOAD,2023-10-23 22:35:26,15.08853137,0.0001553,53.2154,174.6064,106.3626,253.7537,0.0011594,0.00018219,0.0,0 STARLINK-3235,1 50200U 21125AW  23296.94127473  .00018219  00000-0  11594-2 0  9990,2 50200  53.2154 174.6064 0001553 106.3626 253.7537 15.08853137105745,6917.84,95.437,540.78,538.631,0.0
50200.0,STARLINK-3235,PAYLOAD,2023-10-25 22:17:00,15.08842329,0.0001279,53.2158,165.6839,92.0318,268.0821,0.00014389,2.003e-05,0.0,0 STARLINK-3235,1 50200U 21125AW  23298.92847400  .00002003  00000-0  14389-3 0  9999,2 50200  53.2158 165.6839 0001279  92.0318 268.0821 15.08842329105558,6917.873,95.437,540.623,538.853,0.0
50200.0,STARLINK-3235,PAYLOAD,2023-10-26 01:27:46,15.08843115,0.0001324,53.2151,165.0896,93.4336,266.6808,0.00011774,1.587e-05,0.0,0 STARLINK-3235,1 50200U 21125AW  23299.06095370  .00001587  00000-0  11774-3 0  9997,2 50200  53.2151 165.0896 0001324  93.4336 266.6808 15.08843115106064,6917.871,95.437,540.652,538.82,0.0
50200.0,STARLINK-3235,PAYLOAD,2023-10-26 20:32:23,15.08851344,0.0001447,53.2155,161.5219,93.8581,266.2576,0.00028278,4.217e-05,0.0,0 STARLINK-3235,1 50200U 21125AW  23299.85582944  .00004217  00000-0  28278-3 0  9992,2 50200  53.2155 161.5219 0001447  93.8581 266.2576 15.08851344106184,6917.846,95.437,540.712,538.71,0.0
50200.0,STARLINK-3235,PAYLOAD,2023-10-27 14:01:37,15.08858068,0.0001361,53.215,158.2489,93.2174,266.8973,0.00032133,4.832e-05,0.0,0 STARLINK-3235,1 50200U 21125AW  23300.58446211  .00004832  00000-0  32133-3 0  9999,2 50200  53.2150 158.2489 0001361  93.2174 266.8973 15.08858068105803,6917.825,95.436,540.632,538.749,0.0
50200.0,STARLINK-3235,PAYLOAD,2023-10-27 21:58:32,15.08877134,0.0001358,53.2143,156.7642,99.2119,260.9026,0.00064285,9.968e-05,0.0,0 STARLINK-3235,1 50200U 21125AW  23300.91565070  .00009968  00000-0  64285-3 0  9999,2 50200  53.2143 156.7642 0001358  99.2119 260.9026 15.08877134106349,6917.767,95.435,540.571,538.692,0.0
50200.0,STARLINK-3235,PAYLOAD,2023-10-27 23:33:55,15.08882211,0.0001387,53.2142,156.4668,100.286,259.8289,0.00081996,0.00012801,0.0,0 STARLINK-3235,1 50200U 21125AW  23300.98188910  .00012801  00000-0  81996-3 0  9998,2 50200  53.2142 156.4668 0001387 100.2860 259.8289 15.08882211105867,6917.751,95.435,540.576,538.657,0.0
50200.0,STARLINK-3235,PAYLOAD,2023-10-28 07:30:51,15.08852935,0.0002886,53.2133,154.9757,81.6709,278.461,9.018e-05,1.147e-05,0.0,0 STARLINK-3235,1 50200U 21125AW  23301.31309691  .00001147  00000-0  90180-4 0  9994,2 50200  53.2133 154.9757 0002886  81.6709 278.4610 15.08852935105919,6917.841,95.437,541.702,537.709,0.0
50200.0,STARLINK-3235,PAYLOAD,2023-10-28 20:13:57,15.08819731,0.0001558,53.2141,152.5989,86.0784,274.0386,-0.0005679,-9.31e-05,0.0,0 STARLINK-3235,1 50200U 21125AW  23301.84302196 -.00009310  00000-0 -56790-3 0  9995,2 50200  53.2141 152.5989 0001558  86.0784 274.0386 15.08819731105993,6917.942,95.439,540.885,538.73,0.0
50200.0,STARLINK-3235,PAYLOAD,2023-10-28 21:49:20,15.08819459,0.000155,53.2142,152.3013,84.3169,275.8,-0.00045046,-7.446e-05,0.0,0 STARLINK-3235,1 50200U 21125AW  23301.90926331 -.00007446  00000-0 -45046-3 0  9995,2 50200  53.2142 152.3013 0001550  84.3169 275.8000 15.08819459106495,6917.943,95.439,540.88,538.736,0.0
50200.0,STARLINK-3235,PAYLOAD,2023-10-29 07:21:39,15.08824936,0.0001513,53.2137,150.5195,83.4095,276.7069,0.00083241,0.00012979,0.0,0 STARLINK-3235,1 50200U 21125AW  23302.30671122  .00012979  00000-0  83241-3 0  9999,2 50200  53.2137 150.5195 0001513  83.4095 276.7069 15.08824936106061,6917.926,95.439,540.838,538.745,0.0
50200.0,STARLINK-3235,PAYLOAD,2023-10-29 20:04:45,15.08840319,0.0001495,53.2133,148.1411,79.448,280.668,0.0011986,0.00018839,0.0,0 STARLINK-3235,1 50200U 21125AW  23302.83663564  .00018839  00000-0  11986-2 0  9995,2 50200  53.2133 148.1411 0001495  79.4480 280.6680 15.08840319106632,6917.879,95.438,540.779,538.71,0.0
50200.0,STARLINK-3235,PAYLOAD,2023-10-30 13:33:59,15.08846106,0.0002031,53.2134,144.8691,93.1442,266.9783,0.00072806,0.0001132,0.0,0 STARLINK-3235,1 50200U 21125AW  23303.56527670  .00011320  00000-0  72806-3 0  9990,2 50200  53.2134 144.8691 0002031  93.1442 266.9783 15.08846106106253,6917.862,95.437,541.132,538.322,0.0
50200.0,STARLINK-3235,PAYLOAD,2023-10-30 19:55:32,15.0885084,0.0001435,53.2139,143.6795,78.7629,281.3524,0.0008005,0.00012479,0.0,0 STARLINK-3235,1 50200U 21125AW  23303.83023632  .00012479  00000-0  80050-3 0  9995,2 50200  53.2139 143.6795 0001435  78.7629 281.3524 15.08850840106785,6917.847,95.437,540.705,538.72,0.0
50200.0,STARLINK-3235,PAYLOAD,2023-10-31 13:24:46,15.08848962,0.0001722,53.2165,140.4083,88.152,271.9669,0.00052758,8.12e-05,0.0,0 STARLINK-3235,1 50200U 21125AW  23304.55887613  .00008120  00000-0  52758-3 0  9994,2 50200  53.2165 140.4083 0001722  88.1520 271.9669 15.08848962106409,6917.853,95.437,540.909,538.527,0.0
50200.0,STARLINK-3235,PAYLOAD,2023-10-31 19:46:19,15.08845836,0.0001603,53.2163,139.2176,85.0943,275.0233,0.0003496,5.281e-05,0.0,0 STARLINK-3235,1 50200U 21125AW  23304.82383678  .00005281  00000-0  34960-3 0  9996,2 50200  53.2163 139.2176 0001603  85.0943 275.0233 15.08845836106936,6917.863,95.437,540.836,538.619,0.0
50200.0,STARLINK-3235,PAYLOAD,2023-11-01 19:37:06,15.08843733,0.0001558,53.2156,134.7574,79.2872,280.8296,0.00018076,2.59e-05,0.0,0 STARLINK-3235,1 50200U 21125AW  23305.81743738  .00002590  00000-0  18076-3 0  9993,2 50200  53.2156 134.7574 0001558  79.2872 280.8296 15.08843733106594,6917.869,95.437,540.812,538.656,0.0
50200.0,STARLINK-3235,PAYLOAD,2023-11-02 13:06:21,15.08843369,0.0001446,53.2155,131.4867,81.784,278.3316,0.0001953,2.822e-05,0.0,0 STARLINK-3235,1 50200U 21125AW  23306.54607732  .00002822  00000-0  19530-3 0  9991,2 50200  53.2155 131.4867 0001446  81.7840 278.3316 15.08843369107198,6917.87,95.437,540.735,538.735,0.0
50200.0,STARLINK-3235,PAYLOAD,2023-11-02 19:27:53,15.08847037,0.000135,53.2152,130.2981,88.8737,271.241,0.00026701,3.965e-05,0.0,0 STARLINK-3235,1 50200U 21125AW  23306.81103520  .00003965  00000-0  26701-3 0  9994,2 50200  53.2152 130.2981 0001350  88.8737 271.2410 15.08847037107234,6917.859,95.437,540.658,538.79,0.0
50200.0,STARLINK-3235,PAYLOAD,2023-11-03 05:00:12,15.08834913,0.0001499,53.2156,128.5143,83.9905,276.1258,-4.9862e-05,-1.081e-05,0.0,0 STARLINK-3235,1 50200U 21125AW  23307.20847866 -.00001081  00000-0 -49862-4 0  9999,2 50200  53.2156 128.5143 0001499  83.9905 276.1258 15.08834913106800,6917.896,95.438,540.798,538.724,0.0
50200.0,STARLINK-3235,PAYLOAD,2023-11-03 12:57:08,15.08837909,0.0001337,53.2154,127.0269,85.1504,274.9641,5.6492e-05,6.11e-06,0.0,0 STARLINK-3235,1 50200U 21125AW  23307.53967863  .00000611  00000-0  56492-4 0  9998,2 50200  53.2154 127.0269 0001337  85.1504 274.9641 15.08837909107341,6917.887,95.438,540.677,538.827,0.0
50200.0,STARLINK-3235,PAYLOAD,2023-11-03 22:29:26,15.08842709,0.0001297,53.2156,125.243,87.3971,272.717,0.00018361,2.636e-05,0.0,0 STARLINK-3235,1 50200U 21125AW  23307.93711677  .00002636  00000-0  18361-3 0  9993,2 50200  53.2156 125.2430 0001297  87.3971 272.7170 15.08842709107404,6917.872,95.437,540.634,538.84,0.0
50200.0,STARLINK-3235,PAYLOAD,2023-11-04 11:12:32,15.08836448,0.0001288,53.2156,122.8642,86.7456,273.3683,9.4766e-05,1.22e-05,0.0,0 STARLINK-3235,1 50200U 21125AW  23308.46704002  .00001220  00000-0  94766-4 0  9998,2 50200  53.2156 122.8642 0001288  86.7456 273.3683 15.08836448106995,6917.891,95.438,540.647,538.865,0.0
50200.0,STARLINK-3235,PAYLOAD,2023-11-04 19:09:27,15.08841817,0.0001301,53.2157,121.3774,85.5706,274.5435,0.00021345,3.111e-05,0.0,0 STARLINK-3235,1 50200U 21125AW  23308.79823993  .00003111  00000-0  21345-3 0  9998,2 50200  53.2157 121.3774 0001301  85.5706 274.5435 15.08841817107532,6917.875,95.437,540.64,538.84,0.0
50200.0,STARLINK-3235,PAYLOAD,2023-11-05 11:03:19,15.08849281,0.0001304,53.2158,118.404,86.4054,273.7087,0.00039555,6.014e-05,0.0,0 STARLINK-3235,1 50200U 21125AW  23309.46063828  .00006014  00000-0  39555-3 0  9993,2 50200  53.2158 118.4040 0001304  86.4054 273.7087 15.08849281107633,6917.852,95.437,540.619,538.815,0.0
50200.0,STARLINK-3235,PAYLOAD,2023-11-05 19:00:14,15.08856854,0.0001285,53.2152,116.9168,86.3765,273.7374,0.00048082,7.376e-05,0.0,0 STARLINK-3235,1 50200U 21125AW  23309.79183379  .00007376  00000-0  48082-3 0  9990,2 50200  53.2152 116.9168 0001285  86.3765 273.7374 15.08856854107191,6917.829,95.436,540.583,538.805,0.0
50200.0,STARLINK-3235,PAYLOAD,2023-11-06 10:54:05,15.08856485,0.0001445,53.2164,113.9439,82.4295,277.6861,0.00034301,5.178e-05,0.0,0 STARLINK-3235,1 50200U 21125AW  23310.45423076  .00005178  00000-0  34301-3 0  9993,2 50200  53.2164 113.9439 0001445  82.4295 277.6861 15.08856485107290,6917.83,95.437,540.695,538.695,0.0
50200.0,STARLINK-3235,PAYLOAD,2023-11-06 17:15:37,15.08853346,0.0001411,53.2142,112.7519,83.8027,276.3126,0.00019713,2.852e-05,0.0,0 STARLINK-3235,1 50200U 21125AW  23310.71918879  .00002852  00000-0  19713-3 0  9998,2 50200  53.2142 112.7519 0001411  83.8027 276.3126 15.08853346107825,6917.84,95.437,540.681,538.728,0.0
